start=new Date('2022-09-06T00:00:00.000Z').valueOf();
sats=[{"PERIOD":"95.591","MEAN_ANOMALY":"272.6400","NORAD_CAT_ID":"48649","REV_AT_EPOCH":"7065","DECAY_DATE":null,"RA_OF_ASC_NODE":"111.4608","TLE_LINE1":"1 48649U 21044M   22248.86729422 -.00001886  00000-0 -10768-3 0  9990","TIME_SYSTEM":"UTC","LAUNCH_DATE":"2021-05-26","GP_ID":"211832878","CENTER_NAME":"EARTH","OBJECT_NAME":"STARLINK-2673","EPHEMERIS_TYPE":"0","REF_FRAME":"TEME","OBJECT_ID":"2021-044M","SEMIMAJOR_AXIS":"6925.315","FILE":"3559723","PERIAPSIS":"546.110","ELEMENT_SET_NO":"999","EPOCH":"2022-09-05T20:48:54.220608","SITE":"AFETR","ARG_OF_PERICENTER":"87.4766","TLE_LINE2":"2 48649  53.0549 111.4608 0001546  87.4766 272.6400 15.06410832 70653","BSTAR":"-0.00010768000000","INCLINATION":"53.0549","OBJECT_TYPE":"PAYLOAD","MEAN_ELEMENT_THEORY":"SGP4","RCS_SIZE":"LARGE","CLASSIFICATION_TYPE":"U","COUNTRY_CODE":"US","MEAN_MOTION_DDOT":"0.0000000000000","MEAN_MOTION_DOT":"-0.00001886","ECCENTRICITY":"0.00015460","APOAPSIS":"548.251","MEAN_MOTION":"15.06410832"},{"ARG_OF_PERICENTER":"83.5361","SITE":"AFETR","ELEMENT_SET_NO":"999","EPOCH":"2022-09-05T20:43:35.492736","FILE":"3559723","PERIAPSIS":"546.236","ECCENTRICITY":"0.00014070","APOAPSIS":"548.185","MEAN_MOTION":"15.06400890","MEAN_MOTION_DOT":"0.00000734","MEAN_MOTION_DDOT":"0.0000000000000","COUNTRY_CODE":"US","CLASSIFICATION_TYPE":"U","RCS_SIZE":"LARGE","MEAN_ELEMENT_THEORY":"SGP4","OBJECT_TYPE":"PAYLOAD","INCLINATION":"53.0544","BSTAR":"0.00006814600000","TLE_LINE2":"2 48650  53.0544 111.4842 0001407  83.5361 276.5788 15.06400890 70659","REV_AT_EPOCH":"7065","NORAD_CAT_ID":"48650","MEAN_ANOMALY":"276.5788","PERIOD":"95.592","SEMIMAJOR_AXIS":"6925.346","OBJECT_ID":"2021-044N","REF_FRAME":"TEME","EPHEMERIS_TYPE":"0","OBJECT_NAME":"STARLINK-2672","CENTER_NAME":"EARTH","GP_ID":"211832629","LAUNCH_DATE":"2021-05-26","TIME_SYSTEM":"UTC","TLE_LINE1":"1 48650U 21044N   22248.86360524  .00000734  00000-0  68146-4 0  9999","RA_OF_ASC_NODE":"111.4842","DECAY_DATE":null},{"NORAD_CAT_ID":"48651","PERIOD":"95.592","MEAN_ANOMALY":"281.2710","REV_AT_EPOCH":"7065","LAUNCH_DATE":"2021-05-26","TIME_SYSTEM":"UTC","GP_ID":"211833880","CENTER_NAME":"EARTH","DECAY_DATE":null,"RA_OF_ASC_NODE":"111.4957","TLE_LINE1":"1 48651U 21044P   22248.85991784  .00000716  00000-0  66939-4 0  9995","EPHEMERIS_TYPE":"0","OBJECT_ID":"2021-044P","REF_FRAME":"TEME","SEMIMAJOR_AXIS":"6925.348","OBJECT_NAME":"STARLINK-2731","SITE":"AFETR","PERIAPSIS":"546.162","FILE":"3559723","ELEMENT_SET_NO":"999","EPOCH":"2022-09-05T20:38:16.901376","ARG_OF_PERICENTER":"78.8450","INCLINATION":"53.0532","OBJECT_TYPE":"PAYLOAD","BSTAR":"0.00006693900000","TLE_LINE2":"2 48651  53.0532 111.4957 0001517  78.8450 281.2710 15.06400315 70652","MEAN_MOTION_DDOT":"0.0000000000000","MEAN_MOTION_DOT":"0.00000716","APOAPSIS":"548.263","MEAN_MOTION":"15.06400315","ECCENTRICITY":"0.00015170","MEAN_ELEMENT_THEORY":"SGP4","RCS_SIZE":"LARGE","CLASSIFICATION_TYPE":"U","COUNTRY_CODE":"US"},{"NORAD_CAT_ID":"48652","MEAN_ANOMALY":"277.3259","PERIOD":"95.592","REV_AT_EPOCH":"7065","GP_ID":"211834128","CENTER_NAME":"EARTH","TIME_SYSTEM":"UTC","LAUNCH_DATE":"2021-05-26","RA_OF_ASC_NODE":"111.5202","TLE_LINE1":"1 48652U 21044Q   22248.85623388 -.00000626  00000-0 -23130-4 0  9996","DECAY_DATE":null,"SEMIMAJOR_AXIS":"6925.336","EPHEMERIS_TYPE":"0","OBJECT_ID":"2021-044Q","REF_FRAME":"TEME","OBJECT_NAME":"STARLINK-2727","SITE":"AFETR","ELEMENT_SET_NO":"999","EPOCH":"2022-09-05T20:32:58.607232","PERIAPSIS":"546.238","FILE":"3559723","ARG_OF_PERICENTER":"82.7888","INCLINATION":"53.0547","OBJECT_TYPE":"PAYLOAD","TLE_LINE2":"2 48652  53.0547 111.5202 0001391  82.7888 277.3259 15.06404006 70657","BSTAR":"-0.00002313000000","ECCENTRICITY":"0.00013910","APOAPSIS":"548.165","MEAN_MOTION":"15.06404006","MEAN_MOTION_DDOT":"0.0000000000000","MEAN_MOTION_DOT":"-0.00000626","COUNTRY_CODE":"US","MEAN_ELEMENT_THEORY":"SGP4","RCS_SIZE":"LARGE","CLASSIFICATION_TYPE":"U"},{"MEAN_MOTION_DDOT":"0.0000000000000","MEAN_MOTION_DOT":"0.00001443","ECCENTRICITY":"0.00013000","APOAPSIS":"548.115","MEAN_MOTION":"15.06399596","MEAN_ELEMENT_THEORY":"SGP4","CLASSIFICATION_TYPE":"U","RCS_SIZE":"LARGE","COUNTRY_CODE":"US","INCLINATION":"53.0547","OBJECT_TYPE":"PAYLOAD","TLE_LINE2":"2 48653  53.0547 111.5308 0001300  81.1783 278.9353 15.06399596 70651","BSTAR":"0.00011574000000","ARG_OF_PERICENTER":"81.1783","SITE":"AFETR","PERIAPSIS":"546.315","FILE":"3559723","ELEMENT_SET_NO":"999","EPOCH":"2022-09-05T20:27:40.004640","EPHEMERIS_TYPE":"0","OBJECT_ID":"2021-044R","REF_FRAME":"TEME","SEMIMAJOR_AXIS":"6925.350","OBJECT_NAME":"STARLINK-2720","TIME_SYSTEM":"UTC","LAUNCH_DATE":"2021-05-26","GP_ID":"211832379","CENTER_NAME":"EARTH","DECAY_DATE":null,"RA_OF_ASC_NODE":"111.5308","TLE_LINE1":"1 48653U 21044R   22248.85254635  .00001443  00000-0  11574-3 0  9996","REV_AT_EPOCH":"7065","NORAD_CAT_ID":"48653","PERIOD":"95.592","MEAN_ANOMALY":"278.9353"},{"ARG_OF_PERICENTER":"110.7285","SITE":"AFETR","EPOCH":"2022-09-05T20:22:21.793440","ELEMENT_SET_NO":"999","PERIAPSIS":"546.078","FILE":"3559723","APOAPSIS":"548.319","ECCENTRICITY":"0.00016180","MEAN_MOTION":"15.06404827","MEAN_MOTION_DDOT":"0.0000000000000","MEAN_MOTION_DOT":"-0.00000747","COUNTRY_CODE":"US","MEAN_ELEMENT_THEORY":"SGP4","RCS_SIZE":"LARGE","CLASSIFICATION_TYPE":"U","INCLINATION":"53.0562","OBJECT_TYPE":"PAYLOAD","TLE_LINE2":"2 48654  53.0562 111.5489 0001618 110.7285 249.3877 15.06404827 70654","BSTAR":"-0.00003127800000","REV_AT_EPOCH":"7065","NORAD_CAT_ID":"48654","MEAN_ANOMALY":"249.3877","PERIOD":"95.592","SEMIMAJOR_AXIS":"6925.334","EPHEMERIS_TYPE":"0","REF_FRAME":"TEME","OBJECT_ID":"2021-044S","OBJECT_NAME":"STARLINK-2651","GP_ID":"211833129","CENTER_NAME":"EARTH","LAUNCH_DATE":"2021-05-26","TIME_SYSTEM":"UTC","RA_OF_ASC_NODE":"111.5489","TLE_LINE1":"1 48654U 21044S   22248.84886335 -.00000747  00000-0 -31278-4 0  9996","DECAY_DATE":null},{"TIME_SYSTEM":"UTC","LAUNCH_DATE":"2021-05-26","GP_ID":"211833381","CENTER_NAME":"EARTH","DECAY_DATE":null,"RA_OF_ASC_NODE":"111.5633","TLE_LINE1":"1 48655U 21044T   22248.84517830 -.00000857  00000-0 -38653-4 0  9994","EPHEMERIS_TYPE":"0","REF_FRAME":"TEME","OBJECT_ID":"2021-044T","SEMIMAJOR_AXIS":"6925.344","OBJECT_NAME":"STARLINK-2657","NORAD_CAT_ID":"48655","PERIOD":"95.592","MEAN_ANOMALY":"298.6944","REV_AT_EPOCH":"7065","INCLINATION":"53.0545","OBJECT_TYPE":"PAYLOAD","TLE_LINE2":"2 48655  53.0545 111.5633 0001503  61.4196 298.6944 15.06401368 70652","BSTAR":"-0.00003865300000","MEAN_MOTION_DDOT":"0.0000000000000","MEAN_MOTION_DOT":"-0.00000857","APOAPSIS":"548.250","ECCENTRICITY":"0.00015030","MEAN_MOTION":"15.06401368","MEAN_ELEMENT_THEORY":"SGP4","CLASSIFICATION_TYPE":"U","RCS_SIZE":"LARGE","COUNTRY_CODE":"US","SITE":"AFETR","PERIAPSIS":"546.168","FILE":"3559723","ELEMENT_SET_NO":"999","EPOCH":"2022-09-05T20:17:03.405120","ARG_OF_PERICENTER":"61.4196"},{"REV_AT_EPOCH":"7065","MEAN_ANOMALY":"293.3699","PERIOD":"95.592","NORAD_CAT_ID":"48656","OBJECT_NAME":"STARLINK-2701","SEMIMAJOR_AXIS":"6925.358","OBJECT_ID":"2021-044U","REF_FRAME":"TEME","EPHEMERIS_TYPE":"0","TLE_LINE1":"1 48656U 21044U   22248.84149283 -.00000429  00000-0 -99395-5 0  9994","RA_OF_ASC_NODE":"111.5819","DECAY_DATE":null,"CENTER_NAME":"EARTH","GP_ID":"211833629","LAUNCH_DATE":"2021-05-26","TIME_SYSTEM":"UTC","ARG_OF_PERICENTER":"66.7441","ELEMENT_SET_NO":"999","EPOCH":"2022-09-05T20:11:44.980512","FILE":"3559723","PERIAPSIS":"546.230","SITE":"AFETR","COUNTRY_CODE":"US","CLASSIFICATION_TYPE":"U","RCS_SIZE":"LARGE","MEAN_ELEMENT_THEORY":"SGP4","ECCENTRICITY":"0.00014340","APOAPSIS":"548.216","MEAN_MOTION":"15.06396927","MEAN_MOTION_DOT":"-0.00000429","MEAN_MOTION_DDOT":"0.0000000000000","TLE_LINE2":"2 48656  53.0543 111.5819 0001434  66.7441 293.3699 15.06396927 70654","BSTAR":"-0.00000993950000","OBJECT_TYPE":"PAYLOAD","INCLINATION":"53.0543"},{"DECAY_DATE":null,"RA_OF_ASC_NODE":"111.5851","TLE_LINE1":"1 48657U 21044V   22248.83780088  .00001632  00000-0  12839-3 0  9999","TIME_SYSTEM":"UTC","LAUNCH_DATE":"2021-05-26","GP_ID":"211832879","CENTER_NAME":"EARTH","OBJECT_NAME":"STARLINK-2734","EPHEMERIS_TYPE":"0","REF_FRAME":"TEME","OBJECT_ID":"2021-044V","SEMIMAJOR_AXIS":"6925.334","PERIOD":"95.592","MEAN_ANOMALY":"277.3417","NORAD_CAT_ID":"48657","REV_AT_EPOCH":"7065","BSTAR":"0.00012839000000","TLE_LINE2":"2 48657  53.0536 111.5851 0001432  82.7734 277.3417 15.06404894 70657","INCLINATION":"53.0536","OBJECT_TYPE":"PAYLOAD","MEAN_ELEMENT_THEORY":"SGP4","CLASSIFICATION_TYPE":"U","RCS_SIZE":"LARGE","COUNTRY_CODE":"US","MEAN_MOTION_DDOT":"0.0000000000000","MEAN_MOTION_DOT":"0.00001632","APOAPSIS":"548.190","ECCENTRICITY":"0.00014320","MEAN_MOTION":"15.06404894","FILE":"3559723","PERIAPSIS":"546.207","ELEMENT_SET_NO":"999","EPOCH":"2022-09-05T20:06:25.996032","SITE":"AFETR","ARG_OF_PERICENTER":"82.7734"},{"APOAPSIS":"548.194","MEAN_MOTION":"15.06405201","ECCENTRICITY":"0.00014390","MEAN_MOTION_DOT":"0.00000686","MEAN_MOTION_DDOT":"0.0000000000000","COUNTRY_CODE":"US","CLASSIFICATION_TYPE":"U","RCS_SIZE":"LARGE","MEAN_ELEMENT_THEORY":"SGP4","OBJECT_TYPE":"PAYLOAD","INCLINATION":"53.0541","TLE_LINE2":"2 48658  53.0541 111.6139 0001439  88.9578 271.1576 15.06405201 70656","BSTAR":"0.00006496000000","ARG_OF_PERICENTER":"88.9578","SITE":"AFETR","ELEMENT_SET_NO":"999","EPOCH":"2022-09-05T20:01:07.462560","FILE":"3559723","PERIAPSIS":"546.201","SEMIMAJOR_AXIS":"6925.333","REF_FRAME":"TEME","OBJECT_ID":"2021-044W","EPHEMERIS_TYPE":"0","OBJECT_NAME":"STARLINK-2647","CENTER_NAME":"EARTH","GP_ID":"211832630","TIME_SYSTEM":"UTC","LAUNCH_DATE":"2021-05-26","TLE_LINE1":"1 48658U 21044W   22248.83411415  .00000686  00000-0  64960-4 0  9996","RA_OF_ASC_NODE":"111.6139","DECAY_DATE":null,"REV_AT_EPOCH":"7065","NORAD_CAT_ID":"48658","MEAN_ANOMALY":"271.1576","PERIOD":"95.592"}];
